[{"OBJECT_NAME":"ATLAS CENTAUR 2","OBJECT_ID":"1963-047A","EPOCH":"2026-04-03T13:41:40.359264","MEAN_MOTION":14.12181743,"ECCENTRICITY":0.0547169,"INCLINATION":30.3579,"RA_OF_ASC_NODE":56.5832,"ARG_OF_PERICENTER":299.5752,"MEAN_ANOMALY":55.1393,"EPHEMERIS_TYPE":0,"CLASSIFICATION_TYPE":"U","NORAD_CAT_ID":694,"ELEMENT_SET_NO":999,"REV_AT_EPOCH":13514,"BSTAR":0.00051639,"MEAN_MOTION_DOT":4.323e-5,"MEAN_MOTION_DDOT":0},{"OBJECT_NAME":"THOR AGENA D R/B","OBJECT_ID":"1964-002A","EPOCH":"2026-04-03T15:22:20.890848","MEAN_MOTION":14.34034233,"ECCENTRICITY":0.0032863,"INCLINATION":99.1209,"RA_OF_ASC_NODE":108.3372,"ARG_OF_PERICENTER":184.1154,"MEAN_ANOMALY":175.9764,"EPHEMERIS_TYPE":0,"CLASSIFICATION_TYPE":"U","NORAD_CAT_ID":733,"ELEMENT_SET_NO":999,"REV_AT_EPOCH":24187,"BSTAR":0.00013664,"MEAN_MOTION_DOT":3.35e-6,"MEAN_MOTION_DDOT":0},{"OBJECT_NAME":"SL-3 R/B","OBJECT_ID":"1964-053B","EPOCH":"2026-04-03T19:22:11.782848","MEAN_MOTION":14.61387341,"ECCENTRICITY":0.0080598,"INCLINATION":65.0757,"RA_OF_ASC_NODE":257.5944,"ARG_OF_PERICENTER":284.322,"MEAN_ANOMALY":74.8941,"EPHEMERIS_TYPE":0,"CLASSIFICATION_TYPE":"U","NORAD_CAT_ID":877,"ELEMENT_SET_NO":999,"REV_AT_EPOCH":27046,"BSTAR":0.00011648,"MEAN_MOTION_DOT":4.78e-6,"MEAN_MOTION_DDOT":0},{"OBJECT_NAME":"SL-8 R/B","OBJECT_ID":"1967-045B","EPOCH":"2026-04-03T18:20:44.608416","MEAN_MOTION":14.45643138,"ECCENTRICITY":0.0065024,"INCLINATION":74.0103,"RA_OF_ASC_NODE":301.2608,"ARG_OF_PERICENTER":302.0269,"MEAN_ANOMALY":57.4582,"EPHEMERIS_TYPE":0,"CLASSIFICATION_TYPE":"U","NORAD_CAT_ID":2802,"ELEMENT_SET_NO":999,"REV_AT_EPOCH":9264,"BSTAR":0.00014138,"MEAN_MOTION_DOT":4.84e-6,"MEAN_MOTION_DDOT":0},{"OBJECT_NAME":"SL-8 R/B","OBJECT_ID":"1968-040B","EPOCH":"2026-04-03T20:44:46.828896","MEAN_MOTION":15.03443489,"ECCENTRICITY":0.0023329,"INCLINATION":74.0292,"RA_OF_ASC_NODE":262.2423,"ARG_OF_PERICENTER":75.7326,"MEAN_ANOMALY":284.6451,"EPHEMERIS_TYPE":0,"CLASSIFICATION_TYPE":"U","NORAD_CAT_ID":3230,"ELEMENT_SET_NO":999,"REV_AT_EPOCH":9379,"BSTAR":0.00049357,"MEAN_MOTION_DOT":6.725e-5,"MEAN_MOTION_DDOT":0},{"OBJECT_NAME":"OAO 2","OBJECT_ID":"1968-110A","EPOCH":"2026-04-03T04:54:34.479936","MEAN_MOTION":14.47322613,"ECCENTRICITY":0.00052706,"INCLINATION":34.9922,"RA_OF_ASC_NODE":128.3459,"ARG_OF_PERICENTER":29.0054,"MEAN_ANOMALY":331.0929,"EPHEMERIS_TYPE":0,"CLASSIFICATION_TYPE":"U","NORAD_CAT_ID":3597,"ELEMENT_SET_NO":999,"REV_AT_EPOCH":2265,"BSTAR":0.00011394889,"MEAN_MOTION_DOT":4.04e-6,"MEAN_MOTION_DDOT":0},{"OBJECT_NAME":"ISIS 1","OBJECT_ID":"1969-009A","EPOCH":"2026-04-03T16:14:32.926272","MEAN_MOTION":11.30420961,"ECCENTRICITY":0.1707793,"INCLINATION":88.4493,"RA_OF_ASC_NODE":152.5804,"ARG_OF_PERICENTER":38.7564,"MEAN_ANOMALY":332.4321,"EPHEMERIS_TYPE":0,"CLASSIFICATION_TYPE":"U","NORAD_CAT_ID":3669,"ELEMENT_SET_NO":999,"REV_AT_EPOCH":35135,"BSTAR":0.00014232,"MEAN_MOTION_DOT":2.16e-6,"MEAN_MOTION_DDOT":0},{"OBJECT_NAME":"SERT 2","OBJECT_ID":"1970-009A","EPOCH":"2026-04-03T19:22:28.483968","MEAN_MOTION":13.58732519,"ECCENTRICITY":0.0005737,"INCLINATION":99.2793,"RA_OF_ASC_NODE":35.531,"ARG_OF_PERICENTER":98.5044,"MEAN_ANOMALY":316.2867,"EPHEMERIS_TYPE":0,"CLASSIFICATION_TYPE":"U","NORAD_CAT_ID":4327,"ELEMENT_SET_NO":999,"REV_AT_EPOCH":78330,"BSTAR":0.00012325,"MEAN_MOTION_DOT":4.9e-7,"MEAN_MOTION_DDOT":0},{"OBJECT_NAME":"SL-3 R/B","OBJECT_ID":"1971-028B","EPOCH":"2026-04-03T19:53:00.493152","MEAN_MOTION":15.63512239,"ECCENTRICITY":0.0015218,"INCLINATION":81.2384,"RA_OF_ASC_NODE":20.9322,"ARG_OF_PERICENTER":183.3651,"MEAN_ANOMALY":176.7504,"EPHEMERIS_TYPE":0,"CLASSIFICATION_TYPE":"U","NORAD_CAT_ID":5118,"ELEMENT_SET_NO":999,"REV_AT_EPOCH":99259,"BSTAR":0.00077543,"MEAN_MOTION_DOT":0.00072641,"MEAN_MOTION_DDOT":0},{"OBJECT_NAME":"ASTEX 1","OBJECT_ID":"1971-089A","EPOCH":"2026-04-03T17:18:57.322656","MEAN_MOTION":14.50797203,"ECCENTRICITY":0.001565,"INCLINATION":92.7083,"RA_OF_ASC_NODE":159.8489,"ARG_OF_PERICENTER":8.9309,"MEAN_ANOMALY":351.2173,"EPHEMERIS_TYPE":0,"CLASSIFICATION_TYPE":"U","NORAD_CAT_ID":5560,"ELEMENT_SET_NO":999,"REV_AT_EPOCH":86593,"BSTAR":0.00020365,"MEAN_MOTION_DOT":8.02e-6,"MEAN_MOTION_DDOT":0},{"OBJECT_NAME":"SL-8 R/B","OBJECT_ID":"1971-119B","EPOCH":"2026-04-03T11:48:34.302816","MEAN_MOTION":14.38331306,"ECCENTRICITY":0.05460475,"INCLINATION":73.8841,"RA_OF_ASC_NODE":129.3429,"ARG_OF_PERICENTER":90.7186,"MEAN_ANOMALY":275.6538,"EPHEMERIS_TYPE":0,"CLASSIFICATION_TYPE":"U","NORAD_CAT_ID":5730,"ELEMENT_SET_NO":999,"REV_AT_EPOCH":65905,"BSTAR":0.00061310383,"MEAN_MOTION_DOT":0.00011745,"MEAN_MOTION_DDOT":0},{"OBJECT_NAME":"OAO 3 (COPERNICUS)","OBJECT_ID":"1972-065A","EPOCH":"2026-04-03T11:36:16.936704","MEAN_MOTION":14.60019052,"ECCENTRICITY":0.00066686,"INCLINATION":35.0046,"RA_OF_ASC_NODE":156.0505,"ARG_OF_PERICENTER":358.321,"MEAN_ANOMALY":18.8399,"EPHEMERIS_TYPE":0,"CLASSIFICATION_TYPE":"U","NORAD_CAT_ID":6153,"ELEMENT_SET_NO":999,"REV_AT_EPOCH":84982,"BSTAR":0.00011585483,"MEAN_MOTION_DOT":5.44e-6,"MEAN_MOTION_DDOT":0},{"OBJECT_NAME":"ATLAS CENTAUR R/B","OBJECT_ID":"1972-065B","EPOCH":"2026-04-03T11:45:10.400544","MEAN_MOTION":14.77763294,"ECCENTRICITY":0.0033885,"INCLINATION":35.0007,"RA_OF_ASC_NODE":160.4063,"ARG_OF_PERICENTER":219.8369,"MEAN_ANOMALY":139.9843,"EPHEMERIS_TYPE":0,"CLASSIFICATION_TYPE":"U","NORAD_CAT_ID":6155,"ELEMENT_SET_NO":999,"REV_AT_EPOCH":84493,"BSTAR":0.00028104544,"MEAN_MOTION_DOT":2.047e-5,"MEAN_MOTION_DDOT":0},{"OBJECT_NAME":"SL-8 R/B","OBJECT_ID":"1975-112B","EPOCH":"2026-04-03T19:44:26.133216","MEAN_MOTION":14.38218996,"ECCENTRICITY":0.0014689,"INCLINATION":74.0622,"RA_OF_ASC_NODE":332.6827,"ARG_OF_PERICENTER":55.7398,"MEAN_ANOMALY":304.5145,"EPHEMERIS_TYPE":0,"CLASSIFICATION_TYPE":"U","NORAD_CAT_ID":8459,"ELEMENT_SET_NO":999,"REV_AT_EPOCH":63548,"BSTAR":0.00013157,"MEAN_MOTION_DOT":3.74e-6,"MEAN_MOTION_DDOT":0},{"OBJECT_NAME":"SL-3 R/B","OBJECT_ID":"1977-057B","EPOCH":"2026-04-03T20:02:00.488832","MEAN_MOTION":15.46255401,"ECCENTRICITY":0.0007222,"INCLINATION":97.5801,"RA_OF_ASC_NODE":266.8808,"ARG_OF_PERICENTER":183.0746,"MEAN_ANOMALY":177.046,"EPHEMERIS_TYPE":0,"CLASSIFICATION_TYPE":"U","NORAD_CAT_ID":10114,"ELEMENT_SET_NO":999,"REV_AT_EPOCH":67221,"BSTAR":0.00045487,"MEAN_MOTION_DOT":0.00022344,"MEAN_MOTION_DDOT":0},{"OBJECT_NAME":"SEASAT 1","OBJECT_ID":"1978-064A","EPOCH":"2026-04-03T21:10:16.710240","MEAN_MOTION":14.46183374,"ECCENTRICITY":0.0002722,"INCLINATION":108.0068,"RA_OF_ASC_NODE":178.3579,"ARG_OF_PERICENTER":273.0152,"MEAN_ANOMALY":87.0682,"EPHEMERIS_TYPE":0,"CLASSIFICATION_TYPE":"U","NORAD_CAT_ID":10967,"ELEMENT_SET_NO":999,"REV_AT_EPOCH":51015,"BSTAR":0.0001933,"MEAN_MOTION_DOT":5.55e-6,"MEAN_MOTION_DDOT":0},{"OBJECT_NAME":"SL-14 R/B","OBJECT_ID":"1979-011B","EPOCH":"2026-04-03T20:46:23.580480","MEAN_MOTION":14.91945015,"ECCENTRICITY":0.0015385,"INCLINATION":82.5218,"RA_OF_ASC_NODE":72.6738,"ARG_OF_PERICENTER":339.0562,"MEAN_ANOMALY":21.0025,"EPHEMERIS_TYPE":0,"CLASSIFICATION_TYPE":"U","NORAD_CAT_ID":11267,"ELEMENT_SET_NO":999,"REV_AT_EPOCH":53253,"BSTAR":0.00010985,"MEAN_MOTION_DOT":1.139e-5,"MEAN_MOTION_DDOT":0}]
